ONEWEB-0340             
1 49206U 21083W   25252.08755146  .00000036  00000+0  58953-4 0  9999
2 49206  87.9181  31.2690 0001813  96.1654 263.9685 13.18688959192922
ONEWEB-0341             
1 49207U 21083X   25252.09415905 -.00000006  00000+0 -47716-4 0  9991
2 49207  87.9185  31.2801 0001873 113.8865 246.2464 13.18687276192940
ONEWEB-0342             
1 49208U 21083Y   25252.21741335  .00000066  00000+0  13070-3 0  9994
2 49208  87.9277 330.4461 0001771  97.9977 262.1357 13.20771053199699
ONEWEB-0343             
1 49209U 21083Z   25252.09004380  .00000017  00000+0  11046-4 0  9991
2 49209  87.9182  31.2667 0001512 115.3463 244.7826 13.18686598192996
ONEWEB-0344             
1 49210U 21083AA  25252.25306044  .00000436  00000+0  11588-2 0  9997
2 49210  87.9018  16.0842 0001909 111.4479 248.6854 13.13471021194013
ONEWEB-0345             
1 49211U 21083AB  25252.24459887  .00000206  00000+0  52919-3 0  9990
2 49211  87.9024  16.0390 0001850 112.1549 247.9777 13.13470063194022
ONEWEB-0346             
1 49212U 21083AC  25252.09911976  .00000127  00000+0  29027-3 0  9992
2 49212  87.9185  31.2873 0002323  90.6690 269.4708 13.18686649192934
ONEWEB-0348             
1 49213U 21083AD  25252.28370645  .00000091  00000+0  19230-3 0  9991
2 49213  87.9276 330.4447 0002493 106.3764 253.7644 13.20771888199735
